{
    "links": {
        "self": "http://www.neowsapp.com/rest/v1/neo/3736804?api_key=iIulBulltgU6a56xZRHN4H3l9WmuAYTsLGpBGhQ2"
    },
    "id": "3736804",
    "neo_reference_id": "3736804",
    "name": "(2015 XS378)",
    "designation": "2015 XS378",
    "nasa_jpl_url": "http://ssd.jpl.nasa.gov/sbdb.cgi?sstr=3736804",
    "absolute_magnitude_h": 24.8,
    "estimated_diameter": {
        "kilometers": {
            "estimated_diameter_min": 0.0291443905,
            "estimated_diameter_max": 0.0651688382
        },
        "meters": {
            "estimated_diameter_min": 29.1443904535,
            "estimated_diameter_max": 65.1688382168
        },
        "miles": {
            "estimated_diameter_min": 0.018109479,
            "estimated_diameter_max": 0.0404940262
        },
        "feet": {
            "estimated_diameter_min": 95.6180819754,
            "estimated_diameter_max": 213.8085311752
        }
    },
    "is_potentially_hazardous_asteroid": false,
    "close_approach_data": [
        {
            "close_approach_date": "2015-12-07",
            "close_approach_date_full": "2015-Dec-07 14:29",
            "epoch_date_close_approach": 1449498540000,
            "relative_velocity": {
                "kilometers_per_second": "9.8790592631",
                "kilometers_per_hour": "35564.6133472445",
                "miles_per_hour": "22098.4676656809"
            },
            "miss_distance": {
                "astronomical": "0.0431359792",
                "lunar": "16.7798959088",
                "kilometers": "6453050.608684304",
                "miles": "4009739.7141352352"
            },
            "orbiting_body": "Earth"
        }
    ],
    "orbital_data": {
        "orbit_id": "7",
        "orbit_determination_date": "2017-04-06 08:29:49",
        "first_observation_date": "2015-12-14",
        "last_observation_date": "2015-12-30",
        "data_arc_in_days": 16,
        "observations_used": 30,
        "orbit_uncertainty": "7",
        "minimum_orbit_intersection": ".0166706",
        "jupiter_tisserand_invariant": "3.122",
        "epoch_osculation": "2459000.5",
        "eccentricity": ".6130145987978334",
        "semi_major_axis": "2.567217792332803",
        "inclination": "9.33902488178985",
        "ascending_node_longitude": "253.0546083024637",
        "orbital_period": "1502.423949539496",
        "perihelion_distance": ".9934758073392503",
        "perihelion_argument": "166.4642142557023",
        "aphelion_distance": "4.140959777326356",
        "perihelion_time": "2458861.323267699981",
        "mean_anomaly": "33.34852565639944",
        "mean_motion": ".2396127937858969",
        "equinox": "J2000",
        "orbit_class": {
            "orbit_class_type": "APO",
            "orbit_class_description": "Near-Earth asteroid orbits which cross the Earth’s orbit similar to that of 1862 Apollo",
            "orbit_class_range": "a (semi-major axis) > 1.0 AU; q (perihelion) < 1.017 AU"
        }
    },
    "is_sentry_object": false
}